<?xml version="1.0" encoding="UTF-8"?><gpx creator="Wikiloc - https://www.wikiloc.com" version="1.1" xmlns="http://www.topografix.com/GPX/1/1" xmlns:xsi="http://www.w3.org/2001/XMLSchema-instance" xsi:schemaLocation="http://www.topografix.com/GPX/1/1 http://www.topografix.com/GPX/1/1/gpx.xsd"><metadata><name>Wikiloc - Ciudad Panamá: Cerro Ancón, Sendero el mirador. (Panamá)</name><author><name>Travesiadealmas</name><link href="https://www.wikiloc.com/wikiloc/user.do?id=13754487"><text>Travesiadealmas on Wikiloc</text></link></author><link href="https://www.wikiloc.com/hiking-trails/ciudad-panama-cerro-ancon-sendero-el-mirador-panama-218588430"><text>Ciudad Panamá: Cerro Ancón, Sendero el mirador. (Panamá) on Wikiloc</text></link><time>2025-06-18T16:04:17.996Z</time></metadata><trk><name>Ciudad Panamá: Cerro Ancón, Sendero el mirador. (Panamá) - W...</name><cmt></cmt><desc></desc><trkseg><trkpt lat="8.962193" lon="-79.548560"><ele>54.597</ele><time>2025-06-18T14:36:55Z</time></trkpt><trkpt lat="8.962183" lon="-79.548611"><ele>54.623</ele><time>2025-06-18T14:37:12Z</time></trkpt><trkpt lat="8.962186" lon="-79.548659"><ele>54.725</ele><time>2025-06-18T14:37:18Z</time></trkpt><trkpt lat="8.962184" lon="-79.548708"><ele>54.909</ele><time>2025-06-18T14:37:25Z</time></trkpt><trkpt lat="8.962170" lon="-79.548761"><ele>55.161</ele><time>2025-06-18T14:37:31Z</time></trkpt><trkpt lat="8.962201" lon="-79.548801"><ele>55.420</ele><time>2025-06-18T14:37:40Z</time></trkpt><trkpt lat="8.962194" lon="-79.548849"><ele>55.887</ele><time>2025-06-18T14:37:43Z</time></trkpt><trkpt lat="8.962212" lon="-79.548897"><ele>56.274</ele><time>2025-06-18T14:37:48Z</time></trkpt><trkpt lat="8.962221" lon="-79.548951"><ele>56.537</ele><time>2025-06-18T14:37:53Z</time></trkpt><trkpt lat="8.962255" lon="-79.548981"><ele>56.797</ele><time>2025-06-18T14:37:59Z</time></trkpt><trkpt lat="8.962273" lon="-79.549030"><ele>56.963</ele><time>2025-06-18T14:38:05Z</time></trkpt><trkpt lat="8.962254" lon="-79.549083"><ele>57.072</ele><time>2025-06-18T14:38:10Z</time></trkpt><trkpt lat="8.962245" lon="-79.549130"><ele>57.369</ele><time>2025-06-18T14:38:15Z</time></trkpt><trkpt lat="8.962268" lon="-79.549172"><ele>57.694</ele><time>2025-06-18T14:38:19Z</time></trkpt><trkpt lat="8.962266" lon="-79.549220"><ele>57.957</ele><time>2025-06-18T14:38:27Z</time></trkpt><trkpt lat="8.962286" lon="-79.549266"><ele>58.222</ele><time>2025-06-18T14:38:31Z</time></trkpt><trkpt lat="8.962313" lon="-79.549302"><ele>58.609</ele><time>2025-06-18T14:38:36Z</time></trkpt><trkpt lat="8.962324" lon="-79.549356"><ele>59.061</ele><time>2025-06-18T14:38:40Z</time></trkpt><trkpt lat="8.962359" lon="-79.549396"><ele>59.340</ele><time>2025-06-18T14:38:48Z</time></trkpt><trkpt lat="8.962396" lon="-79.549428"><ele>59.637</ele><time>2025-06-18T14:38:52Z</time></trkpt><trkpt lat="8.962428" lon="-79.549466"><ele>59.874</ele><time>2025-06-18T14:38:58Z</time></trkpt><trkpt lat="8.962430" lon="-79.549513"><ele>60.047</ele><time>2025-06-18T14:39:02Z</time></trkpt><trkpt lat="8.962431" lon="-79.549563"><ele>60.417</ele><time>2025-06-18T14:39:07Z</time></trkpt><trkpt lat="8.962466" lon="-79.549611"><ele>60.883</ele><time>2025-06-18T14:39:12Z</time></trkpt><trkpt lat="8.962424" lon="-79.549643"><ele>61.212</ele><time>2025-06-18T14:39:19Z</time></trkpt><trkpt lat="8.962412" lon="-79.549687"><ele>61.639</ele><time>2025-06-18T14:39:26Z</time></trkpt><trkpt lat="8.962415" lon="-79.549738"><ele>61.928</ele><time>2025-06-18T14:39:32Z</time></trkpt><trkpt lat="8.962427" lon="-79.549789"><ele>62.189</ele><time>2025-06-18T14:39:37Z</time></trkpt><trkpt lat="8.962442" lon="-79.549837"><ele>62.417</ele><time>2025-06-18T14:39:41Z</time></trkpt><trkpt lat="8.962440" lon="-79.549896"><ele>62.909</ele><time>2025-06-18T14:39:45Z</time></trkpt><trkpt lat="8.962436" lon="-79.549951"><ele>63.244</ele><time>2025-06-18T14:39:51Z</time></trkpt><trkpt lat="8.962448" lon="-79.550007"><ele>63.563</ele><time>2025-06-18T14:39:56Z</time></trkpt><trkpt lat="8.962451" lon="-79.550054"><ele>63.710</ele><time>2025-06-18T14:40:01Z</time></trkpt><trkpt lat="8.962442" lon="-79.550105"><ele>64.137</ele><time>2025-06-18T14:40:06Z</time></trkpt><trkpt lat="8.962436" lon="-79.550153"><ele>64.320</ele><time>2025-06-18T14:40:11Z</time></trkpt><trkpt lat="8.962424" lon="-79.550199"><ele>64.370</ele><time>2025-06-18T14:40:21Z</time></trkpt><trkpt lat="8.962389" lon="-79.550236"><ele>64.346</ele><time>2025-06-18T14:40:28Z</time></trkpt><trkpt lat="8.962348" lon="-79.550268"><ele>64.315</ele><time>2025-06-18T14:40:32Z</time></trkpt><trkpt lat="8.962325" lon="-79.550318"><ele>64.322</ele><time>2025-06-18T14:40:35Z</time></trkpt><trkpt lat="8.962305" lon="-79.550373"><ele>64.395</ele><time>2025-06-18T14:40:38Z</time></trkpt><trkpt lat="8.962272" lon="-79.550413"><ele>64.349</ele><time>2025-06-18T14:40:41Z</time></trkpt><trkpt lat="8.962222" lon="-79.550437"><ele>64.323</ele><time>2025-06-18T14:40:46Z</time></trkpt><trkpt lat="8.962181" lon="-79.550458"><ele>64.309</ele><time>2025-06-18T14:40:49Z</time></trkpt><trkpt lat="8.962132" lon="-79.550478"><ele>64.341</ele><time>2025-06-18T14:40:54Z</time></trkpt><trkpt lat="8.962095" lon="-79.550511"><ele>64.340</ele><time>2025-06-18T14:40:58Z</time></trkpt><trkpt lat="8.962048" lon="-79.550522"><ele>64.377</ele><time>2025-06-18T14:41:03Z</time></trkpt><trkpt lat="8.962004" lon="-79.550544"><ele>64.384</ele><time>2025-06-18T14:41:09Z</time></trkpt><trkpt lat="8.961949" lon="-79.550528"><ele>64.217</ele><time>2025-06-18T14:41:13Z</time></trkpt><trkpt lat="8.961908" lon="-79.550555"><ele>64.027</ele><time>2025-06-18T14:41:17Z</time></trkpt><trkpt lat="8.961865" lon="-79.550579"><ele>63.793</ele><time>2025-06-18T14:41:21Z</time></trkpt><trkpt lat="8.961833" lon="-79.550615"><ele>63.572</ele><time>2025-06-18T14:41:26Z</time></trkpt><trkpt lat="8.961810" lon="-79.550654"><ele>63.319</ele><time>2025-06-18T14:41:44Z</time></trkpt><trkpt lat="8.961768" lon="-79.550673"><ele>63.286</ele><time>2025-06-18T14:42:12Z</time></trkpt><trkpt lat="8.961739" lon="-79.550630"><ele>63.160</ele><time>2025-06-18T14:42:17Z</time></trkpt><trkpt lat="8.961773" lon="-79.550667"><ele>62.926</ele><time>2025-06-18T14:42:22Z</time></trkpt><trkpt lat="8.961737" lon="-79.550704"><ele>62.809</ele><time>2025-06-18T14:43:47.003Z</time></trkpt><trkpt lat="8.961693" lon="-79.550690"><ele>62.770</ele><time>2025-06-18T14:43:55.001Z</time></trkpt><trkpt lat="8.961748" lon="-79.550722"><ele>62.649</ele><time>2025-06-18T14:44:00Z</time></trkpt><trkpt lat="8.961701" lon="-79.550747"><ele>62.566</ele><time>2025-06-18T14:44:24.998Z</time></trkpt><trkpt lat="8.961654" lon="-79.550765"><ele>62.553</ele><time>2025-06-18T14:44:42.998Z</time></trkpt><trkpt lat="8.961622" lon="-79.550803"><ele>62.436</ele><time>2025-06-18T14:45:13.998Z</time></trkpt><trkpt lat="8.961667" lon="-79.550813"><ele>62.396</ele><time>2025-06-18T14:45:27.998Z</time></trkpt><trkpt lat="8.961619" lon="-79.550798"><ele>62.222</ele><time>2025-06-18T14:45:45.998Z</time></trkpt><trkpt lat="8.961583" lon="-79.550769"><ele>62.281</ele><time>2025-06-18T14:46:18.998Z</time></trkpt><trkpt lat="8.961581" lon="-79.550819"><ele>62.288</ele><time>2025-06-18T14:46:24.998Z</time></trkpt><trkpt lat="8.961529" lon="-79.550817"><ele>62.182</ele><time>2025-06-18T14:46:41.998Z</time></trkpt><trkpt lat="8.961511" lon="-79.550861"><ele>62.143</ele><time>2025-06-18T14:47:18.998Z</time></trkpt><trkpt lat="8.961545" lon="-79.550824"><ele>62.117</ele><time>2025-06-18T14:47:31.998Z</time></trkpt><trkpt lat="8.961543" lon="-79.550777"><ele>62.209</ele><time>2025-06-18T14:47:48.998Z</time></trkpt><trkpt lat="8.961506" lon="-79.550827"><ele>62.250</ele><time>2025-06-18T14:47:55.998Z</time></trkpt><trkpt lat="8.961483" lon="-79.550879"><ele>62.279</ele><time>2025-06-18T14:47:58.998Z</time></trkpt><trkpt lat="8.961461" lon="-79.550921"><ele>62.276</ele><time>2025-06-18T14:48:03.998Z</time></trkpt><trkpt lat="8.961419" lon="-79.550900"><ele>62.233</ele><time>2025-06-18T14:48:11.998Z</time></trkpt><trkpt lat="8.961382" lon="-79.550864"><ele>62.276</ele><time>2025-06-18T14:48:17.998Z</time></trkpt><trkpt lat="8.961334" lon="-79.550854"><ele>62.076</ele><time>2025-06-18T14:48:36.998Z</time></trkpt><trkpt lat="8.961318" lon="-79.550903"><ele>61.862</ele><time>2025-06-18T14:48:40.998Z</time></trkpt><trkpt lat="8.961301" lon="-79.550952"><ele>61.691</ele><time>2025-06-18T14:48:44.998Z</time></trkpt><trkpt lat="8.961265" lon="-79.550982"><ele>61.348</ele><time>2025-06-18T14:48:49.998Z</time></trkpt><trkpt lat="8.961213" lon="-79.551001"><ele>61.117</ele><time>2025-06-18T14:48:53.998Z</time></trkpt><trkpt lat="8.961172" lon="-79.551037"><ele>60.987</ele><time>2025-06-18T14:48:57.998Z</time></trkpt><trkpt lat="8.961129" lon="-79.551067"><ele>60.715</ele><time>2025-06-18T14:49:03.998Z</time></trkpt><trkpt lat="8.961091" lon="-79.551097"><ele>60.609</ele><time>2025-06-18T14:49:08.998Z</time></trkpt><trkpt lat="8.961052" lon="-79.551135"><ele>60.463</ele><time>2025-06-18T14:49:13.998Z</time></trkpt><trkpt lat="8.961002" lon="-79.551147"><ele>60.292</ele><time>2025-06-18T14:49:17.998Z</time></trkpt><trkpt lat="8.960965" lon="-79.551176"><ele>60.139</ele><time>2025-06-18T14:49:21.998Z</time></trkpt><trkpt lat="8.960919" lon="-79.551195"><ele>60.066</ele><time>2025-06-18T14:49:27.998Z</time></trkpt><trkpt lat="8.960874" lon="-79.551210"><ele>59.959</ele><time>2025-06-18T14:49:32.998Z</time></trkpt><trkpt lat="8.960825" lon="-79.551199"><ele>59.889</ele><time>2025-06-18T14:49:36.998Z</time></trkpt><trkpt lat="8.960770" lon="-79.551193"><ele>59.885</ele><time>2025-06-18T14:49:40.998Z</time></trkpt><trkpt lat="8.960724" lon="-79.551201"><ele>59.874</ele><time>2025-06-18T14:49:45.998Z</time></trkpt><trkpt lat="8.960680" lon="-79.551232"><ele>59.841</ele><time>2025-06-18T14:49:51.998Z</time></trkpt><trkpt lat="8.960638" lon="-79.551255"><ele>59.823</ele><time>2025-06-18T14:49:57.998Z</time></trkpt><trkpt lat="8.960602" lon="-79.551223"><ele>59.883</ele><time>2025-06-18T14:50:51.998Z</time></trkpt><trkpt lat="8.960554" lon="-79.551235"><ele>59.711</ele><time>2025-06-18T14:52:50.997Z</time></trkpt><trkpt lat="8.960506" lon="-79.551250"><ele>59.609</ele><time>2025-06-18T14:52:56.997Z</time></trkpt><trkpt lat="8.960455" lon="-79.551251"><ele>59.554</ele><time>2025-06-18T14:53:01.997Z</time></trkpt><trkpt lat="8.960399" lon="-79.551252"><ele>59.463</ele><time>2025-06-18T14:53:06.997Z</time></trkpt><trkpt lat="8.960356" lon="-79.551269"><ele>59.380</ele><time>2025-06-18T14:53:10.997Z</time></trkpt><trkpt lat="8.960305" lon="-79.551286"><ele>59.347</ele><time>2025-06-18T14:53:15.997Z</time></trkpt><trkpt lat="8.960271" lon="-79.551322"><ele>59.390</ele><time>2025-06-18T14:53:19.997Z</time></trkpt><trkpt lat="8.960257" lon="-79.551371"><ele>59.320</ele><time>2025-06-18T14:53:26.997Z</time></trkpt><trkpt lat="8.960209" lon="-79.551379"><ele>59.376</ele><time>2025-06-18T14:53:34.997Z</time></trkpt><trkpt lat="8.960163" lon="-79.551358"><ele>59.475</ele><time>2025-06-18T14:53:42.997Z</time></trkpt><trkpt lat="8.960117" lon="-79.551339"><ele>59.682</ele><time>2025-06-18T14:53:46.997Z</time></trkpt><trkpt lat="8.960073" lon="-79.551357"><ele>59.955</ele><time>2025-06-18T14:53:50.997Z</time></trkpt><trkpt lat="8.960043" lon="-79.551392"><ele>60.207</ele><time>2025-06-18T14:53:53.997Z</time></trkpt><trkpt lat="8.959999" lon="-79.551411"><ele>60.417</ele><time>2025-06-18T14:53:57.997Z</time></trkpt><trkpt lat="8.959947" lon="-79.551434"><ele>60.609</ele><time>2025-06-18T14:54:02.997Z</time></trkpt><trkpt lat="8.959891" lon="-79.551435"><ele>60.837</ele><time>2025-06-18T14:54:07.997Z</time></trkpt><trkpt lat="8.959843" lon="-79.551443"><ele>61.096</ele><time>2025-06-18T14:54:11.997Z</time></trkpt><trkpt lat="8.959794" lon="-79.551446"><ele>61.013</ele><time>2025-06-18T14:54:15.997Z</time></trkpt><trkpt lat="8.959749" lon="-79.551457"><ele>61.020</ele><time>2025-06-18T14:54:45.997Z</time></trkpt><trkpt lat="8.959700" lon="-79.551472"><ele>61.073</ele><time>2025-06-18T14:54:50.997Z</time></trkpt><trkpt lat="8.959652" lon="-79.551454"><ele>61.073</ele><time>2025-06-18T14:55:10.997Z</time></trkpt><trkpt lat="8.959615" lon="-79.551423"><ele>61.049</ele><time>2025-06-18T14:55:23.997Z</time></trkpt><trkpt lat="8.959571" lon="-79.551435"><ele>61.038</ele><time>2025-06-18T14:55:48.997Z</time></trkpt><trkpt lat="8.959525" lon="-79.551429"><ele>61.095</ele><time>2025-06-18T14:55:53.997Z</time></trkpt><trkpt lat="8.959474" lon="-79.551410"><ele>61.078</ele><time>2025-06-18T14:55:58.997Z</time></trkpt><trkpt lat="8.959429" lon="-79.551390"><ele>60.933</ele><time>2025-06-18T14:56:03.997Z</time></trkpt><trkpt lat="8.959383" lon="-79.551398"><ele>60.826</ele><time>2025-06-18T14:56:11.997Z</time></trkpt><trkpt lat="8.959331" lon="-79.551408"><ele>60.709</ele><time>2025-06-18T14:56:16.997Z</time></trkpt><trkpt lat="8.959280" lon="-79.551432"><ele>60.559</ele><time>2025-06-18T14:56:34.997Z</time></trkpt><trkpt lat="8.959230" lon="-79.551428"><ele>60.448</ele><time>2025-06-18T14:56:38.997Z</time></trkpt><trkpt lat="8.959180" lon="-79.551395"><ele>60.445</ele><time>2025-06-18T14:56:42.997Z</time></trkpt><trkpt lat="8.959128" lon="-79.551392"><ele>60.462</ele><time>2025-06-18T14:56:47.997Z</time></trkpt><trkpt lat="8.959082" lon="-79.551412"><ele>60.385</ele><time>2025-06-18T14:56:52.997Z</time></trkpt><trkpt lat="8.959032" lon="-79.551447"><ele>60.155</ele><time>2025-06-18T14:56:57.997Z</time></trkpt><trkpt lat="8.959008" lon="-79.551502"><ele>60.041</ele><time>2025-06-18T14:57:00.997Z</time></trkpt><trkpt lat="8.958968" lon="-79.551525"><ele>59.920</ele><time>2025-06-18T14:57:03.997Z</time></trkpt><trkpt lat="8.958921" lon="-79.551527"><ele>59.897</ele><time>2025-06-18T14:57:07.997Z</time></trkpt><trkpt lat="8.958875" lon="-79.551526"><ele>59.879</ele><time>2025-06-18T14:57:12.997Z</time></trkpt><trkpt lat="8.958822" lon="-79.551516"><ele>59.705</ele><time>2025-06-18T14:57:18.997Z</time></trkpt><trkpt lat="8.958774" lon="-79.551514"><ele>59.625</ele><time>2025-06-18T14:57:23.997Z</time></trkpt><trkpt lat="8.958724" lon="-79.551525"><ele>59.509</ele><time>2025-06-18T14:57:27.997Z</time></trkpt><trkpt lat="8.958678" lon="-79.551531"><ele>59.419</ele><time>2025-06-18T14:57:31.997Z</time></trkpt><trkpt lat="8.958624" lon="-79.551529"><ele>59.398</ele><time>2025-06-18T14:57:35.997Z</time></trkpt><trkpt lat="8.958563" lon="-79.551535"><ele>59.275</ele><time>2025-06-18T14:57:39.997Z</time></trkpt><trkpt lat="8.958512" lon="-79.551538"><ele>59.182</ele><time>2025-06-18T14:57:43.997Z</time></trkpt><trkpt lat="8.958462" lon="-79.551561"><ele>59.095</ele><time>2025-06-18T14:57:48.997Z</time></trkpt><trkpt lat="8.958411" lon="-79.551574"><ele>58.825</ele><time>2025-06-18T14:57:53.997Z</time></trkpt><trkpt lat="8.958370" lon="-79.551595"><ele>58.861</ele><time>2025-06-18T14:58:04.997Z</time></trkpt><trkpt lat="8.958330" lon="-79.551569"><ele>58.710</ele><time>2025-06-18T14:58:20.998Z</time></trkpt><trkpt lat="8.958282" lon="-79.551562"><ele>58.667</ele><time>2025-06-18T14:58:24.998Z</time></trkpt><trkpt lat="8.958230" lon="-79.551564"><ele>58.621</ele><time>2025-06-18T14:58:29.998Z</time></trkpt><trkpt lat="8.958175" lon="-79.551571"><ele>58.441</ele><time>2025-06-18T14:58:34.998Z</time></trkpt><trkpt lat="8.958134" lon="-79.551617"><ele>58.105</ele><time>2025-06-18T14:58:37.998Z</time></trkpt><trkpt lat="8.958083" lon="-79.551622"><ele>57.909</ele><time>2025-06-18T14:58:40.998Z</time></trkpt><trkpt lat="8.958040" lon="-79.551603"><ele>57.864</ele><time>2025-06-18T14:58:44.998Z</time></trkpt><trkpt lat="8.957992" lon="-79.551580"><ele>57.743</ele><time>2025-06-18T14:58:48.998Z</time></trkpt><trkpt lat="8.957960" lon="-79.551545"><ele>57.640</ele><time>2025-06-18T14:58:52.998Z</time></trkpt><trkpt lat="8.957911" lon="-79.551541"><ele>57.687</ele><time>2025-06-18T14:59:30.998Z</time></trkpt><trkpt lat="8.957875" lon="-79.551510"><ele>57.690</ele><time>2025-06-18T14:59:33.998Z</time></trkpt><trkpt lat="8.957821" lon="-79.551508"><ele>57.650</ele><time>2025-06-18T14:59:38.998Z</time></trkpt><trkpt lat="8.957862" lon="-79.551535"><ele>57.846</ele><time>2025-06-18T15:00:02.998Z</time></trkpt><trkpt lat="8.957806" lon="-79.551523"><ele>58.115</ele><time>2025-06-18T15:00:12.998Z</time></trkpt><trkpt lat="8.957753" lon="-79.551528"><ele>58.442</ele><time>2025-06-18T15:00:16.998Z</time></trkpt><trkpt lat="8.957698" lon="-79.551518"><ele>58.693</ele><time>2025-06-18T15:00:23.998Z</time></trkpt><trkpt lat="8.957642" lon="-79.551507"><ele>59.165</ele><time>2025-06-18T15:00:28.998Z</time></trkpt><trkpt lat="8.957594" lon="-79.551527"><ele>59.821</ele><time>2025-06-18T15:00:34.998Z</time></trkpt><trkpt lat="8.957544" lon="-79.551527"><ele>60.009</ele><time>2025-06-18T15:00:38.998Z</time></trkpt><trkpt lat="8.957495" lon="-79.551510"><ele>60.311</ele><time>2025-06-18T15:00:41.998Z</time></trkpt><trkpt lat="8.957447" lon="-79.551512"><ele>60.560</ele><time>2025-06-18T15:00:45.998Z</time></trkpt><trkpt lat="8.957396" lon="-79.551526"><ele>60.697</ele><time>2025-06-18T15:00:49.998Z</time></trkpt><trkpt lat="8.957347" lon="-79.551537"><ele>60.734</ele><time>2025-06-18T15:00:54.998Z</time></trkpt><trkpt lat="8.957296" lon="-79.551520"><ele>60.887</ele><time>2025-06-18T15:01:00.998Z</time></trkpt><trkpt lat="8.957247" lon="-79.551516"><ele>61.047</ele><time>2025-06-18T15:01:04.998Z</time></trkpt><trkpt lat="8.957202" lon="-79.551488"><ele>61.253</ele><time>2025-06-18T15:01:09.998Z</time></trkpt><trkpt lat="8.957148" lon="-79.551498"><ele>61.442</ele><time>2025-06-18T15:01:20.998Z</time></trkpt><trkpt lat="8.957099" lon="-79.551500"><ele>61.679</ele><time>2025-06-18T15:01:28.998Z</time></trkpt><trkpt lat="8.957122" lon="-79.551450"><ele>61.844</ele><time>2025-06-18T15:01:41.998Z</time></trkpt><trkpt lat="8.957165" lon="-79.551466"><ele>61.805</ele><time>2025-06-18T15:01:56.998Z</time></trkpt><trkpt lat="8.957165" lon="-79.551401"><ele>61.815</ele><time>2025-06-18T15:02:44.998Z</time></trkpt><trkpt lat="8.957134" lon="-79.551434"><ele>61.809</ele><time>2025-06-18T15:03:00.998Z</time></trkpt><trkpt lat="8.957089" lon="-79.551463"><ele>61.786</ele><time>2025-06-18T15:03:18.998Z</time></trkpt><trkpt lat="8.957136" lon="-79.551469"><ele>61.735</ele><time>2025-06-18T15:05:10.998Z</time></trkpt><trkpt lat="8.957120" lon="-79.551517"><ele>61.742</ele><time>2025-06-18T15:06:20.998Z</time></trkpt><trkpt lat="8.957079" lon="-79.551497"><ele>61.739</ele><time>2025-06-18T15:06:33.998Z</time></trkpt><trkpt lat="8.957035" lon="-79.551472"><ele>61.992</ele><time>2025-06-18T15:06:39.998Z</time></trkpt><trkpt lat="8.956987" lon="-79.551461"><ele>62.152</ele><time>2025-06-18T15:06:44.998Z</time></trkpt><trkpt lat="8.956935" lon="-79.551444"><ele>62.188</ele><time>2025-06-18T15:06:49.998Z</time></trkpt><trkpt lat="8.956892" lon="-79.551459"><ele>62.217</ele><time>2025-06-18T15:06:57.998Z</time></trkpt><trkpt lat="8.956851" lon="-79.551435"><ele>62.344</ele><time>2025-06-18T15:07:21.998Z</time></trkpt><trkpt lat="8.956804" lon="-79.551454"><ele>62.593</ele><time>2025-06-18T15:07:26.998Z</time></trkpt><trkpt lat="8.956760" lon="-79.551437"><ele>62.665</ele><time>2025-06-18T15:07:32.998Z</time></trkpt><trkpt lat="8.956717" lon="-79.551421"><ele>62.621</ele><time>2025-06-18T15:07:38.998Z</time></trkpt><trkpt lat="8.956668" lon="-79.551426"><ele>62.609</ele><time>2025-06-18T15:07:43.998Z</time></trkpt><trkpt lat="8.956617" lon="-79.551441"><ele>62.611</ele><time>2025-06-18T15:07:50.998Z</time></trkpt><trkpt lat="8.956564" lon="-79.551456"><ele>62.670</ele><time>2025-06-18T15:07:55.998Z</time></trkpt><trkpt lat="8.956515" lon="-79.551446"><ele>62.627</ele><time>2025-06-18T15:08:01.998Z</time></trkpt><trkpt lat="8.956488" lon="-79.551409"><ele>62.844</ele><time>2025-06-18T15:08:06.998Z</time></trkpt><trkpt lat="8.956445" lon="-79.551385"><ele>63.077</ele><time>2025-06-18T15:08:10.998Z</time></trkpt><trkpt lat="8.956394" lon="-79.551385"><ele>63.117</ele><time>2025-06-18T15:08:14.998Z</time></trkpt><trkpt lat="8.956344" lon="-79.551361"><ele>63.253</ele><time>2025-06-18T15:08:38.998Z</time></trkpt><trkpt lat="8.956297" lon="-79.551357"><ele>63.372</ele><time>2025-06-18T15:08:43.998Z</time></trkpt><trkpt lat="8.956253" lon="-79.551375"><ele>63.539</ele><time>2025-06-18T15:08:47.998Z</time></trkpt><trkpt lat="8.956203" lon="-79.551365"><ele>63.799</ele><time>2025-06-18T15:08:52.998Z</time></trkpt><trkpt lat="8.956146" lon="-79.551388"><ele>63.807</ele><time>2025-06-18T15:08:56.998Z</time></trkpt><trkpt lat="8.956090" lon="-79.551395"><ele>63.927</ele><time>2025-06-18T15:09:00.998Z</time></trkpt><trkpt lat="8.956045" lon="-79.551426"><ele>64.109</ele><time>2025-06-18T15:09:04.998Z</time></trkpt><trkpt lat="8.955991" lon="-79.551426"><ele>64.271</ele><time>2025-06-18T15:09:10.998Z</time></trkpt><trkpt lat="8.955940" lon="-79.551431"><ele>64.320</ele><time>2025-06-18T15:09:13.998Z</time></trkpt><trkpt lat="8.955887" lon="-79.551431"><ele>64.377</ele><time>2025-06-18T15:09:18.998Z</time></trkpt><trkpt lat="8.955845" lon="-79.551400"><ele>64.494</ele><time>2025-06-18T15:09:25.998Z</time></trkpt><trkpt lat="8.955808" lon="-79.551362"><ele>64.537</ele><time>2025-06-18T15:09:30.998Z</time></trkpt><trkpt lat="8.955765" lon="-79.551342"><ele>64.677</ele><time>2025-06-18T15:09:36.998Z</time></trkpt><trkpt lat="8.955724" lon="-79.551364"><ele>64.713</ele><time>2025-06-18T15:09:46.998Z</time></trkpt><trkpt lat="8.955675" lon="-79.551345"><ele>64.922</ele><time>2025-06-18T15:09:51.998Z</time></trkpt><trkpt lat="8.955634" lon="-79.551313"><ele>65.259</ele><time>2025-06-18T15:10:01.998Z</time></trkpt><trkpt lat="8.955587" lon="-79.551308"><ele>65.529</ele><time>2025-06-18T15:10:05.998Z</time></trkpt><trkpt lat="8.955536" lon="-79.551306"><ele>65.700</ele><time>2025-06-18T15:10:11.998Z</time></trkpt><trkpt lat="8.955496" lon="-79.551281"><ele>65.920</ele><time>2025-06-18T15:10:16.998Z</time></trkpt><trkpt lat="8.955456" lon="-79.551245"><ele>66.109</ele><time>2025-06-18T15:10:21.998Z</time></trkpt><trkpt lat="8.955420" lon="-79.551208"><ele>66.314</ele><time>2025-06-18T15:10:26.998Z</time></trkpt><trkpt lat="8.955407" lon="-79.551162"><ele>66.573</ele><time>2025-06-18T15:10:32.998Z</time></trkpt><trkpt lat="8.955390" lon="-79.551108"><ele>66.750</ele><time>2025-06-18T15:10:37.998Z</time></trkpt><trkpt lat="8.955360" lon="-79.551070"><ele>66.857</ele><time>2025-06-18T15:10:41.998Z</time></trkpt><trkpt lat="8.955366" lon="-79.551015"><ele>66.980</ele><time>2025-06-18T15:10:46.998Z</time></trkpt><trkpt lat="8.955383" lon="-79.550956"><ele>66.910</ele><time>2025-06-18T15:10:50.998Z</time></trkpt><trkpt lat="8.955398" lon="-79.550913"><ele>66.916</ele><time>2025-06-18T15:10:56.998Z</time></trkpt><trkpt lat="8.955349" lon="-79.550923"><ele>66.915</ele><time>2025-06-18T15:11:11.998Z</time></trkpt><trkpt lat="8.955306" lon="-79.550947"><ele>66.932</ele><time>2025-06-18T15:11:25.998Z</time></trkpt><trkpt lat="8.955260" lon="-79.550944"><ele>66.871</ele><time>2025-06-18T15:11:31.998Z</time></trkpt><trkpt lat="8.955214" lon="-79.550971"><ele>66.841</ele><time>2025-06-18T15:11:36.998Z</time></trkpt><trkpt lat="8.955165" lon="-79.550986"><ele>66.815</ele><time>2025-06-18T15:11:43.998Z</time></trkpt><trkpt lat="8.955119" lon="-79.550987"><ele>66.609</ele><time>2025-06-18T15:11:48.998Z</time></trkpt><trkpt lat="8.955067" lon="-79.550981"><ele>66.369</ele><time>2025-06-18T15:11:54.998Z</time></trkpt><trkpt lat="8.955074" lon="-79.550933"><ele>66.268</ele><time>2025-06-18T15:12:03.998Z</time></trkpt><trkpt lat="8.955049" lon="-79.550975"><ele>66.285</ele><time>2025-06-18T15:12:20.998Z</time></trkpt><trkpt lat="8.954994" lon="-79.550975"><ele>66.262</ele><time>2025-06-18T15:12:24.998Z</time></trkpt><trkpt lat="8.954948" lon="-79.550999"><ele>66.255</ele><time>2025-06-18T15:12:28.998Z</time></trkpt><trkpt lat="8.954901" lon="-79.551019"><ele>66.235</ele><time>2025-06-18T15:12:32.998Z</time></trkpt><trkpt lat="8.954852" lon="-79.551000"><ele>66.221</ele><time>2025-06-18T15:12:37.998Z</time></trkpt><trkpt lat="8.954805" lon="-79.550990"><ele>66.280</ele><time>2025-06-18T15:12:42.998Z</time></trkpt><trkpt lat="8.954758" lon="-79.550968"><ele>66.217</ele><time>2025-06-18T15:12:47.998Z</time></trkpt><trkpt lat="8.954713" lon="-79.550974"><ele>66.228</ele><time>2025-06-18T15:12:50.998Z</time></trkpt><trkpt lat="8.954671" lon="-79.550992"><ele>66.289</ele><time>2025-06-18T15:12:53.998Z</time></trkpt><trkpt lat="8.954622" lon="-79.550995"><ele>66.217</ele><time>2025-06-18T15:12:58.998Z</time></trkpt><trkpt lat="8.954572" lon="-79.550993"><ele>66.209</ele><time>2025-06-18T15:13:03.998Z</time></trkpt><trkpt lat="8.954523" lon="-79.550971"><ele>66.294</ele><time>2025-06-18T15:13:08.998Z</time></trkpt><trkpt lat="8.954481" lon="-79.550930"><ele>66.223</ele><time>2025-06-18T15:13:12.998Z</time></trkpt><trkpt lat="8.954435" lon="-79.550911"><ele>66.280</ele><time>2025-06-18T15:13:16.998Z</time></trkpt><trkpt lat="8.954389" lon="-79.550946"><ele>66.257</ele><time>2025-06-18T15:13:20.998Z</time></trkpt><trkpt lat="8.954338" lon="-79.550963"><ele>66.230</ele><time>2025-06-18T15:13:24.998Z</time></trkpt><trkpt lat="8.954287" lon="-79.550970"><ele>66.270</ele><time>2025-06-18T15:13:28.998Z</time></trkpt><trkpt lat="8.954234" lon="-79.550976"><ele>66.266</ele><time>2025-06-18T15:13:33.998Z</time></trkpt><trkpt lat="8.954181" lon="-79.550971"><ele>66.355</ele><time>2025-06-18T15:13:38.998Z</time></trkpt><trkpt lat="8.954130" lon="-79.550993"><ele>66.422</ele><time>2025-06-18T15:13:42.998Z</time></trkpt><trkpt lat="8.954084" lon="-79.550995"><ele>66.472</ele><time>2025-06-18T15:13:53.998Z</time></trkpt><trkpt lat="8.954038" lon="-79.550998"><ele>66.413</ele><time>2025-06-18T15:14:23.998Z</time></trkpt><trkpt lat="8.953982" lon="-79.550997"><ele>66.414</ele><time>2025-06-18T15:14:30.998Z</time></trkpt><trkpt lat="8.953947" lon="-79.550965"><ele>66.409</ele><time>2025-06-18T15:14:41.998Z</time></trkpt><trkpt lat="8.953912" lon="-79.550996"><ele>66.519</ele><time>2025-06-18T15:15:04.998Z</time></trkpt><trkpt lat="8.953864" lon="-79.550984"><ele>66.668</ele><time>2025-06-18T15:15:10.998Z</time></trkpt><trkpt lat="8.953815" lon="-79.550980"><ele>66.755</ele><time>2025-06-18T15:15:13.998Z</time></trkpt><trkpt lat="8.953777" lon="-79.551005"><ele>66.892</ele><time>2025-06-18T15:15:16.998Z</time></trkpt><trkpt lat="8.953720" lon="-79.551012"><ele>66.965</ele><time>2025-06-18T15:15:22.998Z</time></trkpt><trkpt lat="8.953668" lon="-79.551021"><ele>66.985</ele><time>2025-06-18T15:15:28.998Z</time></trkpt><trkpt lat="8.953612" lon="-79.551019"><ele>67.051</ele><time>2025-06-18T15:15:34.998Z</time></trkpt><trkpt lat="8.953558" lon="-79.551000"><ele>67.180</ele><time>2025-06-18T15:15:39.998Z</time></trkpt><trkpt lat="8.953508" lon="-79.550996"><ele>67.317</ele><time>2025-06-18T15:15:44.998Z</time></trkpt><trkpt lat="8.953458" lon="-79.550982"><ele>67.484</ele><time>2025-06-18T15:15:49.998Z</time></trkpt><trkpt lat="8.953409" lon="-79.550971"><ele>67.607</ele><time>2025-06-18T15:15:55.998Z</time></trkpt><trkpt lat="8.953368" lon="-79.550940"><ele>67.817</ele><time>2025-06-18T15:15:58.998Z</time></trkpt><trkpt lat="8.953317" lon="-79.550931"><ele>67.909</ele><time>2025-06-18T15:16:02.998Z</time></trkpt><trkpt lat="8.953268" lon="-79.550903"><ele>67.920</ele><time>2025-06-18T15:16:05.998Z</time></trkpt><trkpt lat="8.953226" lon="-79.550880"><ele>68.069</ele><time>2025-06-18T15:16:09.998Z</time></trkpt><trkpt lat="8.953186" lon="-79.550852"><ele>68.126</ele><time>2025-06-18T15:16:13.998Z</time></trkpt><trkpt lat="8.953146" lon="-79.550829"><ele>68.223</ele><time>2025-06-18T15:16:18.998Z</time></trkpt><trkpt lat="8.953103" lon="-79.550799"><ele>68.356</ele><time>2025-06-18T15:16:22.998Z</time></trkpt><trkpt lat="8.953072" lon="-79.550759"><ele>68.376</ele><time>2025-06-18T15:16:27.998Z</time></trkpt><trkpt lat="8.953042" lon="-79.550713"><ele>68.412</ele><time>2025-06-18T15:16:32.998Z</time></trkpt><trkpt lat="8.953021" lon="-79.550663"><ele>68.581</ele><time>2025-06-18T15:16:36.998Z</time></trkpt><trkpt lat="8.953000" lon="-79.550616"><ele>68.698</ele><time>2025-06-18T15:16:41.998Z</time></trkpt><trkpt lat="8.952947" lon="-79.550606"><ele>68.724</ele><time>2025-06-18T15:16:46.998Z</time></trkpt><trkpt lat="8.952934" lon="-79.550552"><ele>68.904</ele><time>2025-06-18T15:16:51.998Z</time></trkpt><trkpt lat="8.952925" lon="-79.550502"><ele>69.114</ele><time>2025-06-18T15:16:55.998Z</time></trkpt><trkpt lat="8.952917" lon="-79.550456"><ele>69.309</ele><time>2025-06-18T15:17:00.998Z</time></trkpt><trkpt lat="8.952908" lon="-79.550408"><ele>69.554</ele><time>2025-06-18T15:17:05.998Z</time></trkpt><trkpt lat="8.952908" lon="-79.550360"><ele>69.763</ele><time>2025-06-18T15:17:13.998Z</time></trkpt><trkpt lat="8.952949" lon="-79.550392"><ele>69.930</ele><time>2025-06-18T15:17:27.998Z</time></trkpt><trkpt lat="8.952944" lon="-79.550448"><ele>70.157</ele><time>2025-06-18T15:17:33.998Z</time></trkpt><trkpt lat="8.952912" lon="-79.550483"><ele>70.170</ele><time>2025-06-18T15:17:37.998Z</time></trkpt><trkpt lat="8.952917" lon="-79.550435"><ele>70.110</ele><time>2025-06-18T15:17:55.998Z</time></trkpt><trkpt lat="8.952871" lon="-79.550438"><ele>70.196</ele><time>2025-06-18T15:18:07.998Z</time></trkpt><trkpt lat="8.952859" lon="-79.550484"><ele>70.185</ele><time>2025-06-18T15:18:21.041Z</time></trkpt><trkpt lat="8.952899" lon="-79.550440"><ele>70.142</ele><time>2025-06-18T15:18:39.046Z</time></trkpt><trkpt lat="8.952870" lon="-79.550400"><ele>70.123</ele><time>2025-06-18T15:18:44.047Z</time></trkpt><trkpt lat="8.952875" lon="-79.550451"><ele>70.283</ele><time>2025-06-18T15:18:58.056Z</time></trkpt><trkpt lat="8.952909" lon="-79.550411"><ele>70.311</ele><time>2025-06-18T15:19:07.051Z</time></trkpt><trkpt lat="8.952909" lon="-79.550354"><ele>70.409</ele><time>2025-06-18T15:19:11.055Z</time></trkpt><trkpt lat="8.952922" lon="-79.550308"><ele>70.644</ele><time>2025-06-18T15:19:16.053Z</time></trkpt><trkpt lat="8.952904" lon="-79.550256"><ele>70.813</ele><time>2025-06-18T15:19:20.052Z</time></trkpt><trkpt lat="8.952852" lon="-79.550256"><ele>71.110</ele><time>2025-06-18T15:19:23.052Z</time></trkpt><trkpt lat="8.952879" lon="-79.550220"><ele>71.547</ele><time>2025-06-18T15:19:29.052Z</time></trkpt><trkpt lat="8.952918" lon="-79.550193"><ele>71.850</ele><time>2025-06-18T15:19:34.052Z</time></trkpt><trkpt lat="8.952931" lon="-79.550146"><ele>72.110</ele><time>2025-06-18T15:19:37.149Z</time></trkpt><trkpt lat="8.952938" lon="-79.550100"><ele>72.566</ele><time>2025-06-18T15:19:43.055Z</time></trkpt><trkpt lat="8.952956" lon="-79.550048"><ele>72.865</ele><time>2025-06-18T15:19:46.951Z</time></trkpt><trkpt lat="8.952920" lon="-79.550018"><ele>73.122</ele><time>2025-06-18T15:20:03.981Z</time></trkpt><trkpt lat="8.952873" lon="-79.549998"><ele>73.644</ele><time>2025-06-18T15:20:33.993Z</time></trkpt><trkpt lat="8.952843" lon="-79.549962"><ele>73.805</ele><time>2025-06-18T15:20:42.994Z</time></trkpt><trkpt lat="8.952873" lon="-79.550007"><ele>73.815</ele><time>2025-06-18T15:21:19.995Z</time></trkpt><trkpt lat="8.952911" lon="-79.549926"><ele>73.809</ele><time>2025-06-18T15:21:43.995Z</time></trkpt><trkpt lat="8.952959" lon="-79.549915"><ele>73.836</ele><time>2025-06-18T15:21:46.995Z</time></trkpt><trkpt lat="8.953010" lon="-79.549923"><ele>73.965</ele><time>2025-06-18T15:21:58.995Z</time></trkpt><trkpt lat="8.952958" lon="-79.549940"><ele>73.952</ele><time>2025-06-18T15:22:08.995Z</time></trkpt><trkpt lat="8.952943" lon="-79.549985"><ele>73.929</ele><time>2025-06-18T15:22:22.995Z</time></trkpt><trkpt lat="8.952918" lon="-79.550024"><ele>73.882</ele><time>2025-06-18T15:22:45.995Z</time></trkpt><trkpt lat="8.952958" lon="-79.550001"><ele>73.832</ele><time>2025-06-18T15:22:54.995Z</time></trkpt><trkpt lat="8.952917" lon="-79.550021"><ele>73.818</ele><time>2025-06-18T15:23:20.995Z</time></trkpt><trkpt lat="8.952876" lon="-79.550048"><ele>73.857</ele><time>2025-06-18T15:23:33.995Z</time></trkpt><trkpt lat="8.952878" lon="-79.549998"><ele>73.874</ele><time>2025-06-18T15:23:43.995Z</time></trkpt><trkpt lat="8.952922" lon="-79.550009"><ele>73.849</ele><time>2025-06-18T15:24:06.995Z</time></trkpt><trkpt lat="8.952933" lon="-79.549961"><ele>73.802</ele><time>2025-06-18T15:24:24.995Z</time></trkpt><trkpt lat="8.952935" lon="-79.549914"><ele>73.922</ele><time>2025-06-18T15:24:44.995Z</time></trkpt><trkpt lat="8.952967" lon="-79.549880"><ele>73.909</ele><time>2025-06-18T15:24:52.995Z</time></trkpt><trkpt lat="8.952979" lon="-79.549836"><ele>74.186</ele><time>2025-06-18T15:25:09.995Z</time></trkpt><trkpt lat="8.952983" lon="-79.549789"><ele>74.465</ele><time>2025-06-18T15:25:45.995Z</time></trkpt><trkpt lat="8.953036" lon="-79.549833"><ele>75.052</ele><time>2025-06-18T15:26:27.995Z</time></trkpt><trkpt lat="8.953051" lon="-79.549788"><ele>75.929</ele><time>2025-06-18T15:27:19.995Z</time></trkpt><trkpt lat="8.953101" lon="-79.549763"><ele>76.392</ele><time>2025-06-18T15:27:42.994Z</time></trkpt><trkpt lat="8.953142" lon="-79.549736"><ele>76.492</ele><time>2025-06-18T15:27:57.994Z</time></trkpt><trkpt lat="8.953147" lon="-79.549690"><ele>76.778</ele><time>2025-06-18T15:28:05.994Z</time></trkpt><trkpt lat="8.953170" lon="-79.549647"><ele>77.457</ele><time>2025-06-18T15:28:18.994Z</time></trkpt><trkpt lat="8.953229" lon="-79.549637"><ele>78.054</ele><time>2025-06-18T15:28:22.994Z</time></trkpt><trkpt lat="8.953282" lon="-79.549628"><ele>78.426</ele><time>2025-06-18T15:28:27.994Z</time></trkpt><trkpt lat="8.953236" lon="-79.549620"><ele>79.047</ele><time>2025-06-18T15:28:45.994Z</time></trkpt><trkpt lat="8.953198" lon="-79.549647"><ele>79.211</ele><time>2025-06-18T15:28:57.994Z</time></trkpt><trkpt lat="8.953152" lon="-79.549629"><ele>79.209</ele><time>2025-06-18T15:30:49.994Z</time></trkpt><trkpt lat="8.953172" lon="-79.549678"><ele>79.254</ele><time>2025-06-18T15:31:41.994Z</time></trkpt><trkpt lat="8.953218" lon="-79.549682"><ele>79.293</ele><time>2025-06-18T15:32:08.994Z</time></trkpt><trkpt lat="8.953266" lon="-79.549668"><ele>79.260</ele><time>2025-06-18T15:32:20.994Z</time></trkpt><trkpt lat="8.953310" lon="-79.549632"><ele>79.357</ele><time>2025-06-18T15:32:52.994Z</time></trkpt><trkpt lat="8.953351" lon="-79.549600"><ele>79.570</ele><time>2025-06-18T15:32:54.994Z</time></trkpt><trkpt lat="8.953391" lon="-79.549577"><ele>79.630</ele><time>2025-06-18T15:32:56.994Z</time></trkpt><trkpt lat="8.953417" lon="-79.549538"><ele>79.866</ele><time>2025-06-18T15:32:59.994Z</time></trkpt><trkpt lat="8.953471" lon="-79.549517"><ele>80.155</ele><time>2025-06-18T15:33:04.994Z</time></trkpt><trkpt lat="8.953511" lon="-79.549486"><ele>80.772</ele><time>2025-06-18T15:33:06.994Z</time></trkpt><trkpt lat="8.953561" lon="-79.549422"><ele>81.723</ele><time>2025-06-18T15:33:08.994Z</time></trkpt><trkpt lat="8.953585" lon="-79.549377"><ele>82.183</ele><time>2025-06-18T15:33:10.994Z</time></trkpt><trkpt lat="8.953622" lon="-79.549341"><ele>82.611</ele><time>2025-06-18T15:33:12.994Z</time></trkpt><trkpt lat="8.953657" lon="-79.549311"><ele>83.009</ele><time>2025-06-18T15:33:14.994Z</time></trkpt><trkpt lat="8.953700" lon="-79.549268"><ele>83.434</ele><time>2025-06-18T15:33:17.994Z</time></trkpt><trkpt lat="8.953742" lon="-79.549239"><ele>83.683</ele><time>2025-06-18T15:33:20.994Z</time></trkpt><trkpt lat="8.953788" lon="-79.549202"><ele>84.040</ele><time>2025-06-18T15:33:23.994Z</time></trkpt><trkpt lat="8.953831" lon="-79.549155"><ele>85.297</ele><time>2025-06-18T15:33:26.994Z</time></trkpt><trkpt lat="8.953862" lon="-79.549117"><ele>85.920</ele><time>2025-06-18T15:33:28.994Z</time></trkpt><trkpt lat="8.953901" lon="-79.549065"><ele>86.620</ele><time>2025-06-18T15:33:31.994Z</time></trkpt><trkpt lat="8.953949" lon="-79.549021"><ele>87.086</ele><time>2025-06-18T15:33:34.994Z</time></trkpt><trkpt lat="8.953995" lon="-79.549016"><ele>87.735</ele><time>2025-06-18T15:33:36.994Z</time></trkpt><trkpt lat="8.954045" lon="-79.549047"><ele>88.442</ele><time>2025-06-18T15:33:39.994Z</time></trkpt><trkpt lat="8.954053" lon="-79.549107"><ele>88.848</ele><time>2025-06-18T15:33:41.994Z</time></trkpt><trkpt lat="8.954051" lon="-79.549172"><ele>89.561</ele><time>2025-06-18T15:33:43.994Z</time></trkpt><trkpt lat="8.954048" lon="-79.549221"><ele>89.917</ele><time>2025-06-18T15:33:45.994Z</time></trkpt><trkpt lat="8.954002" lon="-79.549255"><ele>90.209</ele><time>2025-06-18T15:33:50.994Z</time></trkpt><trkpt lat="8.953962" lon="-79.549282"><ele>90.576</ele><time>2025-06-18T15:33:57.994Z</time></trkpt><trkpt lat="8.953917" lon="-79.549297"><ele>90.565</ele><time>2025-06-18T15:34:02.994Z</time></trkpt><trkpt lat="8.953889" lon="-79.549338"><ele>90.662</ele><time>2025-06-18T15:34:11.994Z</time></trkpt><trkpt lat="8.953851" lon="-79.549370"><ele>90.759</ele><time>2025-06-18T15:34:14.994Z</time></trkpt><trkpt lat="8.953806" lon="-79.549388"><ele>90.982</ele><time>2025-06-18T15:34:17.994Z</time></trkpt><trkpt lat="8.953758" lon="-79.549411"><ele>91.072</ele><time>2025-06-18T15:34:21.994Z</time></trkpt><trkpt lat="8.953723" lon="-79.549454"><ele>91.038</ele><time>2025-06-18T15:34:29.994Z</time></trkpt><trkpt lat="8.953725" lon="-79.549505"><ele>91.157</ele><time>2025-06-18T15:34:32.994Z</time></trkpt><trkpt lat="8.953718" lon="-79.549559"><ele>91.224</ele><time>2025-06-18T15:34:35.994Z</time></trkpt><trkpt lat="8.953723" lon="-79.549607"><ele>91.385</ele><time>2025-06-18T15:34:38.994Z</time></trkpt><trkpt lat="8.953776" lon="-79.549605"><ele>91.489</ele><time>2025-06-18T15:34:47.994Z</time></trkpt><trkpt lat="8.953817" lon="-79.549643"><ele>91.517</ele><time>2025-06-18T15:35:00.994Z</time></trkpt><trkpt lat="8.953868" lon="-79.549638"><ele>91.709</ele><time>2025-06-18T15:35:22.994Z</time></trkpt><trkpt lat="8.953923" lon="-79.549605"><ele>93.640</ele><time>2025-06-18T15:35:25.994Z</time></trkpt><trkpt lat="8.953961" lon="-79.549632"><ele>96.269</ele><time>2025-06-18T15:35:34.994Z</time></trkpt><trkpt lat="8.953985" lon="-79.549592"><ele>96.526</ele><time>2025-06-18T15:35:49.994Z</time></trkpt><trkpt lat="8.954031" lon="-79.549622"><ele>97.673</ele><time>2025-06-18T15:35:53.994Z</time></trkpt><trkpt lat="8.954064" lon="-79.549665"><ele>99.076</ele><time>2025-06-18T15:35:57.994Z</time></trkpt><trkpt lat="8.954059" lon="-79.549613"><ele>99.766</ele><time>2025-06-18T15:36:03.994Z</time></trkpt><trkpt lat="8.954036" lon="-79.549568"><ele>100.042</ele><time>2025-06-18T15:36:10.994Z</time></trkpt><trkpt lat="8.953996" lon="-79.549540"><ele>100.321</ele><time>2025-06-18T15:36:15.994Z</time></trkpt><trkpt lat="8.953948" lon="-79.549583"><ele>100.568</ele><time>2025-06-18T15:36:28.994Z</time></trkpt><trkpt lat="8.953964" lon="-79.549644"><ele>100.512</ele><time>2025-06-18T15:36:30.994Z</time></trkpt><trkpt lat="8.953985" lon="-79.549598"><ele>100.532</ele><time>2025-06-18T15:36:35.994Z</time></trkpt><trkpt lat="8.954024" lon="-79.549571"><ele>100.505</ele><time>2025-06-18T15:36:38.994Z</time></trkpt><trkpt lat="8.954070" lon="-79.549539"><ele>100.509</ele><time>2025-06-18T15:36:42.994Z</time></trkpt><trkpt lat="8.954106" lon="-79.549507"><ele>100.573</ele><time>2025-06-18T15:36:47.994Z</time></trkpt><trkpt lat="8.954148" lon="-79.549484"><ele>100.622</ele><time>2025-06-18T15:36:52.994Z</time></trkpt><trkpt lat="8.954188" lon="-79.549513"><ele>100.959</ele><time>2025-06-18T15:37:02.994Z</time></trkpt><trkpt lat="8.954206" lon="-79.549555"><ele>101.466</ele><time>2025-06-18T15:37:06.994Z</time></trkpt><trkpt lat="8.954250" lon="-79.549541"><ele>102.039</ele><time>2025-06-18T15:37:10.994Z</time></trkpt><trkpt lat="8.954279" lon="-79.549487"><ele>102.519</ele><time>2025-06-18T15:37:14.994Z</time></trkpt><trkpt lat="8.954312" lon="-79.549443"><ele>102.715</ele><time>2025-06-18T15:37:19.994Z</time></trkpt><trkpt lat="8.954341" lon="-79.549389"><ele>102.914</ele><time>2025-06-18T15:37:22.994Z</time></trkpt><trkpt lat="8.954375" lon="-79.549340"><ele>103.311</ele><time>2025-06-18T15:37:25.994Z</time></trkpt><trkpt lat="8.954424" lon="-79.549316"><ele>103.424</ele><time>2025-06-18T15:37:30.994Z</time></trkpt><trkpt lat="8.954446" lon="-79.549275"><ele>103.604</ele><time>2025-06-18T15:37:34.994Z</time></trkpt><trkpt lat="8.954449" lon="-79.549227"><ele>103.814</ele><time>2025-06-18T15:37:39.994Z</time></trkpt><trkpt lat="8.954443" lon="-79.549178"><ele>104.109</ele><time>2025-06-18T15:37:44.994Z</time></trkpt><trkpt lat="8.954441" lon="-79.549130"><ele>104.484</ele><time>2025-06-18T15:37:50.994Z</time></trkpt><trkpt lat="8.954400" lon="-79.549105"><ele>104.833</ele><time>2025-06-18T15:37:54.994Z</time></trkpt><trkpt lat="8.954352" lon="-79.549094"><ele>105.290</ele><time>2025-06-18T15:37:58.994Z</time></trkpt><trkpt lat="8.954356" lon="-79.549044"><ele>105.557</ele><time>2025-06-18T15:38:05.994Z</time></trkpt><trkpt lat="8.954375" lon="-79.548995"><ele>105.750</ele><time>2025-06-18T15:38:15.994Z</time></trkpt><trkpt lat="8.954422" lon="-79.548960"><ele>106.110</ele><time>2025-06-18T15:38:18.994Z</time></trkpt><trkpt lat="8.954440" lon="-79.548906"><ele>106.876</ele><time>2025-06-18T15:38:22.994Z</time></trkpt><trkpt lat="8.954422" lon="-79.548857"><ele>107.415</ele><time>2025-06-18T15:38:25.994Z</time></trkpt><trkpt lat="8.954419" lon="-79.548802"><ele>107.922</ele><time>2025-06-18T15:38:30.994Z</time></trkpt><trkpt lat="8.954423" lon="-79.548751"><ele>108.254</ele><time>2025-06-18T15:38:40.994Z</time></trkpt><trkpt lat="8.954460" lon="-79.548723"><ele>108.456</ele><time>2025-06-18T15:38:46.994Z</time></trkpt><trkpt lat="8.954499" lon="-79.548696"><ele>108.711</ele><time>2025-06-18T15:39:10.994Z</time></trkpt><trkpt lat="8.954446" lon="-79.548702"><ele>108.809</ele><time>2025-06-18T15:39:16.994Z</time></trkpt><trkpt lat="8.954389" lon="-79.548719"><ele>108.947</ele><time>2025-06-18T15:39:19.994Z</time></trkpt><trkpt lat="8.954343" lon="-79.548745"><ele>109.096</ele><time>2025-06-18T15:39:49.994Z</time></trkpt><trkpt lat="8.954290" lon="-79.548768"><ele>109.183</ele><time>2025-06-18T15:40:18.994Z</time></trkpt><trkpt lat="8.954233" lon="-79.548787"><ele>109.170</ele><time>2025-06-18T15:40:25.994Z</time></trkpt><trkpt lat="8.954183" lon="-79.548835"><ele>109.123</ele><time>2025-06-18T15:40:40.994Z</time></trkpt><trkpt lat="8.954226" lon="-79.548813"><ele>109.153</ele><time>2025-06-18T15:40:47.994Z</time></trkpt><trkpt lat="8.954275" lon="-79.548788"><ele>109.479</ele><time>2025-06-18T15:41:09.994Z</time></trkpt><trkpt lat="8.954323" lon="-79.548759"><ele>109.488</ele><time>2025-06-18T15:41:15.994Z</time></trkpt><trkpt lat="8.954368" lon="-79.548720"><ele>109.465</ele><time>2025-06-18T15:41:18.994Z</time></trkpt><trkpt lat="8.954393" lon="-79.548678"><ele>109.428</ele><time>2025-06-18T15:41:23Z</time></trkpt><trkpt lat="8.954347" lon="-79.548685"><ele>109.489</ele><time>2025-06-18T15:42:33.994Z</time></trkpt><trkpt lat="8.954327" lon="-79.548728"><ele>109.417</ele><time>2025-06-18T15:44:10.994Z</time></trkpt><trkpt lat="8.954289" lon="-79.548753"><ele>109.509</ele><time>2025-06-18T15:44:13.994Z</time></trkpt><trkpt lat="8.954324" lon="-79.548716"><ele>109.774</ele><time>2025-06-18T15:44:26.994Z</time></trkpt><trkpt lat="8.954288" lon="-79.548765"><ele>109.723</ele><time>2025-06-18T15:44:42.994Z</time></trkpt><trkpt lat="8.954340" lon="-79.548737"><ele>109.740</ele><time>2025-06-18T15:44:46.994Z</time></trkpt><trkpt lat="8.954396" lon="-79.548704"><ele>109.797</ele><time>2025-06-18T15:44:49.994Z</time></trkpt><trkpt lat="8.954440" lon="-79.548668"><ele>109.760</ele><time>2025-06-18T15:44:51.994Z</time></trkpt><trkpt lat="8.954497" lon="-79.548642"><ele>109.910</ele><time>2025-06-18T15:44:54.994Z</time></trkpt><trkpt lat="8.954543" lon="-79.548617"><ele>110.046</ele><time>2025-06-18T15:44:58.994Z</time></trkpt><trkpt lat="8.954576" lon="-79.548584"><ele>110.325</ele><time>2025-06-18T15:45:02.994Z</time></trkpt><trkpt lat="8.954606" lon="-79.548547"><ele>110.552</ele><time>2025-06-18T15:45:10.994Z</time></trkpt><trkpt lat="8.954655" lon="-79.548547"><ele>111.048</ele><time>2025-06-18T15:45:15.994Z</time></trkpt><trkpt lat="8.954703" lon="-79.548551"><ele>111.661</ele><time>2025-06-18T15:45:20.994Z</time></trkpt><trkpt lat="8.954749" lon="-79.548569"><ele>112.217</ele><time>2025-06-18T15:45:24.994Z</time></trkpt><trkpt lat="8.954798" lon="-79.548553"><ele>112.709</ele><time>2025-06-18T15:45:29.994Z</time></trkpt><trkpt lat="8.954843" lon="-79.548567"><ele>113.146</ele><time>2025-06-18T15:45:33.994Z</time></trkpt><trkpt lat="8.954878" lon="-79.548602"><ele>113.555</ele><time>2025-06-18T15:45:38.994Z</time></trkpt><trkpt lat="8.954918" lon="-79.548630"><ele>113.922</ele><time>2025-06-18T15:45:43.994Z</time></trkpt><trkpt lat="8.954975" lon="-79.548642"><ele>114.369</ele><time>2025-06-18T15:45:47.994Z</time></trkpt><trkpt lat="8.955026" lon="-79.548654"><ele>114.782</ele><time>2025-06-18T15:45:50.994Z</time></trkpt><trkpt lat="8.955074" lon="-79.548655"><ele>115.082</ele><time>2025-06-18T15:45:55.994Z</time></trkpt><trkpt lat="8.955114" lon="-79.548683"><ele>115.358</ele><time>2025-06-18T15:45:59.994Z</time></trkpt><trkpt lat="8.955164" lon="-79.548688"><ele>115.667</ele><time>2025-06-18T15:46:04.994Z</time></trkpt><trkpt lat="8.955215" lon="-79.548700"><ele>116.084</ele><time>2025-06-18T15:46:10.994Z</time></trkpt><trkpt lat="8.955265" lon="-79.548693"><ele>116.386</ele><time>2025-06-18T15:46:21.994Z</time></trkpt><trkpt lat="8.955295" lon="-79.548649"><ele>116.660</ele><time>2025-06-18T15:46:27.994Z</time></trkpt><trkpt lat="8.955339" lon="-79.548625"><ele>117.026</ele><time>2025-06-18T15:46:30.994Z</time></trkpt><trkpt lat="8.955386" lon="-79.548621"><ele>117.509</ele><time>2025-06-18T15:46:36.994Z</time></trkpt><trkpt lat="8.955417" lon="-79.548583"><ele>117.820</ele><time>2025-06-18T15:46:43.994Z</time></trkpt><trkpt lat="8.955460" lon="-79.548553"><ele>118.219</ele><time>2025-06-18T15:46:48.994Z</time></trkpt><trkpt lat="8.955514" lon="-79.548551"><ele>118.886</ele><time>2025-06-18T15:46:55.994Z</time></trkpt><trkpt lat="8.955567" lon="-79.548536"><ele>119.333</ele><time>2025-06-18T15:47:01.994Z</time></trkpt><trkpt lat="8.955624" lon="-79.548550"><ele>119.776</ele><time>2025-06-18T15:47:08.994Z</time></trkpt><trkpt lat="8.955663" lon="-79.548580"><ele>120.256</ele><time>2025-06-18T15:47:13.994Z</time></trkpt><trkpt lat="8.955707" lon="-79.548601"><ele>120.722</ele><time>2025-06-18T15:47:19.994Z</time></trkpt><trkpt lat="8.955739" lon="-79.548641"><ele>121.181</ele><time>2025-06-18T15:47:23.994Z</time></trkpt><trkpt lat="8.955796" lon="-79.548649"><ele>121.428</ele><time>2025-06-18T15:47:29.994Z</time></trkpt><trkpt lat="8.955847" lon="-79.548653"><ele>121.755</ele><time>2025-06-18T15:47:34.994Z</time></trkpt><trkpt lat="8.955879" lon="-79.548618"><ele>122.007</ele><time>2025-06-18T15:47:42.994Z</time></trkpt><trkpt lat="8.955923" lon="-79.548653"><ele>122.317</ele><time>2025-06-18T15:47:49.994Z</time></trkpt><trkpt lat="8.955960" lon="-79.548689"><ele>122.609</ele><time>2025-06-18T15:47:55.994Z</time></trkpt><trkpt lat="8.956013" lon="-79.548698"><ele>123.087</ele><time>2025-06-18T15:48:06.994Z</time></trkpt><trkpt lat="8.956059" lon="-79.548700"><ele>123.596</ele><time>2025-06-18T15:48:12.994Z</time></trkpt><trkpt lat="8.956102" lon="-79.548720"><ele>124.153</ele><time>2025-06-18T15:48:18.994Z</time></trkpt><trkpt lat="8.956147" lon="-79.548726"><ele>124.510</ele><time>2025-06-18T15:48:25.994Z</time></trkpt><trkpt lat="8.956197" lon="-79.548720"><ele>124.813</ele><time>2025-06-18T15:48:31.994Z</time></trkpt><trkpt lat="8.956242" lon="-79.548727"><ele>125.223</ele><time>2025-06-18T15:48:36.996Z</time></trkpt><trkpt lat="8.956290" lon="-79.548721"><ele>125.479</ele><time>2025-06-18T15:48:43.995Z</time></trkpt><trkpt lat="8.956333" lon="-79.548696"><ele>125.678</ele><time>2025-06-18T15:48:47.995Z</time></trkpt><trkpt lat="8.956380" lon="-79.548713"><ele>126.025</ele><time>2025-06-18T15:48:52.995Z</time></trkpt><trkpt lat="8.956434" lon="-79.548700"><ele>126.485</ele><time>2025-06-18T15:48:57.995Z</time></trkpt><trkpt lat="8.956472" lon="-79.548669"><ele>126.789</ele><time>2025-06-18T15:49:01.995Z</time></trkpt><trkpt lat="8.956510" lon="-79.548643"><ele>127.217</ele><time>2025-06-18T15:49:07.995Z</time></trkpt><trkpt lat="8.956558" lon="-79.548650"><ele>127.809</ele><time>2025-06-18T15:49:16.995Z</time></trkpt><trkpt lat="8.956604" lon="-79.548640"><ele>128.490</ele><time>2025-06-18T15:49:20.995Z</time></trkpt><trkpt lat="8.956655" lon="-79.548658"><ele>128.879</ele><time>2025-06-18T15:49:25.995Z</time></trkpt><trkpt lat="8.956702" lon="-79.548664"><ele>129.096</ele><time>2025-06-18T15:49:31.995Z</time></trkpt><trkpt lat="8.956747" lon="-79.548672"><ele>129.373</ele><time>2025-06-18T15:49:35.995Z</time></trkpt><trkpt lat="8.956781" lon="-79.548702"><ele>129.636</ele><time>2025-06-18T15:49:40.995Z</time></trkpt><trkpt lat="8.956828" lon="-79.548706"><ele>129.936</ele><time>2025-06-18T15:49:53.995Z</time></trkpt><trkpt lat="8.956871" lon="-79.548729"><ele>130.392</ele><time>2025-06-18T15:49:56.995Z</time></trkpt><trkpt lat="8.956920" lon="-79.548721"><ele>131.071</ele><time>2025-06-18T15:50:01.995Z</time></trkpt><trkpt lat="8.956968" lon="-79.548707"><ele>131.638</ele><time>2025-06-18T15:50:08.995Z</time></trkpt><trkpt lat="8.957017" lon="-79.548715"><ele>131.969</ele><time>2025-06-18T15:50:14.995Z</time></trkpt><trkpt lat="8.957056" lon="-79.548746"><ele>132.404</ele><time>2025-06-18T15:50:19.995Z</time></trkpt><trkpt lat="8.957102" lon="-79.548753"><ele>132.924</ele><time>2025-06-18T15:50:25.995Z</time></trkpt><trkpt lat="8.957143" lon="-79.548723"><ele>133.309</ele><time>2025-06-18T15:50:31.995Z</time></trkpt><trkpt lat="8.957149" lon="-79.548676"><ele>133.788</ele><time>2025-06-18T15:50:38.995Z</time></trkpt><trkpt lat="8.957151" lon="-79.548629"><ele>134.247</ele><time>2025-06-18T15:50:46.995Z</time></trkpt><trkpt lat="8.957196" lon="-79.548642"><ele>134.484</ele><time>2025-06-18T15:50:54.995Z</time></trkpt><trkpt lat="8.957153" lon="-79.548660"><ele>134.481</ele><time>2025-06-18T15:52:01.995Z</time></trkpt><trkpt lat="8.957199" lon="-79.548660"><ele>134.544</ele><time>2025-06-18T15:53:23.995Z</time></trkpt><trkpt lat="8.957231" lon="-79.548698"><ele>134.624</ele><time>2025-06-18T15:53:48.995Z</time></trkpt><trkpt lat="8.957256" lon="-79.548744"><ele>134.790</ele><time>2025-06-18T15:53:52.995Z</time></trkpt><trkpt lat="8.957299" lon="-79.548716"><ele>135.079</ele><time>2025-06-18T15:53:55.995Z</time></trkpt><trkpt lat="8.957345" lon="-79.548695"><ele>135.346</ele><time>2025-06-18T15:54:01.995Z</time></trkpt><trkpt lat="8.957375" lon="-79.548656"><ele>135.563</ele><time>2025-06-18T15:54:32.995Z</time></trkpt><trkpt lat="8.957436" lon="-79.548646"><ele>135.544</ele><time>2025-06-18T15:54:38.995Z</time></trkpt><trkpt lat="8.957499" lon="-79.548658"><ele>136.118</ele><time>2025-06-18T15:54:41.995Z</time></trkpt><trkpt lat="8.957548" lon="-79.548669"><ele>136.409</ele><time>2025-06-18T15:54:43.995Z</time></trkpt><trkpt lat="8.957601" lon="-79.548676"><ele>136.868</ele><time>2025-06-18T15:54:45.995Z</time></trkpt><trkpt lat="8.957654" lon="-79.548668"><ele>137.177</ele><time>2025-06-18T15:54:47.995Z</time></trkpt><trkpt lat="8.957702" lon="-79.548665"><ele>137.414</ele><time>2025-06-18T15:54:49.995Z</time></trkpt><trkpt lat="8.957752" lon="-79.548662"><ele>137.851</ele><time>2025-06-18T15:54:51.995Z</time></trkpt><trkpt lat="8.957809" lon="-79.548652"><ele>138.274</ele><time>2025-06-18T15:54:53.995Z</time></trkpt><trkpt lat="8.957869" lon="-79.548637"><ele>138.664</ele><time>2025-06-18T15:54:55.995Z</time></trkpt><trkpt lat="8.957936" lon="-79.548646"><ele>139.180</ele><time>2025-06-18T15:54:58.995Z</time></trkpt><trkpt lat="8.957980" lon="-79.548662"><ele>139.549</ele><time>2025-06-18T15:55:00.995Z</time></trkpt><trkpt lat="8.958046" lon="-79.548656"><ele>140.166</ele><time>2025-06-18T15:55:03.995Z</time></trkpt><trkpt lat="8.958094" lon="-79.548659"><ele>140.519</ele><time>2025-06-18T15:55:05.995Z</time></trkpt><trkpt lat="8.958149" lon="-79.548657"><ele>141.009</ele><time>2025-06-18T15:55:07.995Z</time></trkpt><trkpt lat="8.958200" lon="-79.548630"><ele>141.519</ele><time>2025-06-18T15:55:09.995Z</time></trkpt><trkpt lat="8.958258" lon="-79.548606"><ele>141.809</ele><time>2025-06-18T15:55:11.995Z</time></trkpt><trkpt lat="8.958322" lon="-79.548584"><ele>142.163</ele><time>2025-06-18T15:55:13.995Z</time></trkpt><trkpt lat="8.958370" lon="-79.548563"><ele>142.432</ele><time>2025-06-18T15:55:15.995Z</time></trkpt><trkpt lat="8.958429" lon="-79.548555"><ele>142.729</ele><time>2025-06-18T15:55:19.995Z</time></trkpt><trkpt lat="8.958476" lon="-79.548545"><ele>143.096</ele><time>2025-06-18T15:55:21.995Z</time></trkpt><trkpt lat="8.958536" lon="-79.548528"><ele>143.659</ele><time>2025-06-18T15:55:24.995Z</time></trkpt><trkpt lat="8.958586" lon="-79.548532"><ele>143.999</ele><time>2025-06-18T15:55:26.995Z</time></trkpt><trkpt lat="8.958637" lon="-79.548539"><ele>144.555</ele><time>2025-06-18T15:55:29.995Z</time></trkpt><trkpt lat="8.958703" lon="-79.548516"><ele>144.994</ele><time>2025-06-18T15:55:32.995Z</time></trkpt><trkpt lat="8.958753" lon="-79.548516"><ele>145.521</ele><time>2025-06-18T15:55:34.995Z</time></trkpt><trkpt lat="8.958804" lon="-79.548527"><ele>146.048</ele><time>2025-06-18T15:55:36.995Z</time></trkpt><trkpt lat="8.958864" lon="-79.548532"><ele>146.461</ele><time>2025-06-18T15:55:39.995Z</time></trkpt><trkpt lat="8.958928" lon="-79.548542"><ele>146.817</ele><time>2025-06-18T15:55:42.995Z</time></trkpt><trkpt lat="8.958969" lon="-79.548563"><ele>147.409</ele><time>2025-06-18T15:55:44.995Z</time></trkpt><trkpt lat="8.959003" lon="-79.548602"><ele>147.916</ele><time>2025-06-18T15:55:58.995Z</time></trkpt><trkpt lat="8.959016" lon="-79.548648"><ele>148.115</ele><time>2025-06-18T15:56:00.995Z</time></trkpt><trkpt lat="8.959043" lon="-79.548704"><ele>148.812</ele><time>2025-06-18T15:56:03.995Z</time></trkpt><trkpt lat="8.959076" lon="-79.548741"><ele>149.069</ele><time>2025-06-18T15:56:05.995Z</time></trkpt><trkpt lat="8.959104" lon="-79.548802"><ele>150.112</ele><time>2025-06-18T15:56:08.995Z</time></trkpt><trkpt lat="8.959103" lon="-79.548851"><ele>150.572</ele><time>2025-06-18T15:56:11.995Z</time></trkpt><trkpt lat="8.959093" lon="-79.548918"><ele>151.138</ele><time>2025-06-18T15:56:14.995Z</time></trkpt><trkpt lat="8.959098" lon="-79.548977"><ele>151.577</ele><time>2025-06-18T15:56:16.995Z</time></trkpt><trkpt lat="8.959104" lon="-79.549033"><ele>152.164</ele><time>2025-06-18T15:56:18.995Z</time></trkpt><trkpt lat="8.959124" lon="-79.549079"><ele>152.679</ele><time>2025-06-18T15:56:22.995Z</time></trkpt><trkpt lat="8.959175" lon="-79.549125"><ele>153.005</ele><time>2025-06-18T15:56:26.995Z</time></trkpt><trkpt lat="8.959199" lon="-79.549174"><ele>153.625</ele><time>2025-06-18T15:56:28.995Z</time></trkpt><trkpt lat="8.959220" lon="-79.549225"><ele>154.109</ele><time>2025-06-18T15:56:30.995Z</time></trkpt><trkpt lat="8.959217" lon="-79.549281"><ele>154.559</ele><time>2025-06-18T15:56:32.995Z</time></trkpt><trkpt lat="8.959224" lon="-79.549337"><ele>154.928</ele><time>2025-06-18T15:56:35.995Z</time></trkpt><trkpt lat="8.959211" lon="-79.549384"><ele>155.125</ele><time>2025-06-18T15:56:41.995Z</time></trkpt><trkpt lat="8.959229" lon="-79.549430"><ele>155.572</ele><time>2025-06-18T15:56:48.995Z</time></trkpt><trkpt lat="8.959261" lon="-79.549466"><ele>156.285</ele><time>2025-06-18T15:56:55.995Z</time></trkpt><trkpt lat="8.959227" lon="-79.549499"><ele>157.075</ele><time>2025-06-18T15:57:02.995Z</time></trkpt><trkpt lat="8.959178" lon="-79.549506"><ele>157.521</ele><time>2025-06-18T15:57:12.995Z</time></trkpt><trkpt lat="8.959147" lon="-79.549541"><ele>157.840</ele><time>2025-06-18T15:57:18.995Z</time></trkpt><trkpt lat="8.959094" lon="-79.549557"><ele>158.087</ele><time>2025-06-18T15:57:22.995Z</time></trkpt><trkpt lat="8.959039" lon="-79.549559"><ele>158.314</ele><time>2025-06-18T15:57:26.995Z</time></trkpt><trkpt lat="8.958982" lon="-79.549556"><ele>158.654</ele><time>2025-06-18T15:58:15.995Z</time></trkpt><trkpt lat="8.958922" lon="-79.549571"><ele>158.709</ele><time>2025-06-18T15:58:19.995Z</time></trkpt><trkpt lat="8.958876" lon="-79.549576"><ele>159.609</ele><time>2025-06-18T15:58:22.995Z</time></trkpt><trkpt lat="8.958852" lon="-79.549530"><ele>160.093</ele><time>2025-06-18T15:58:28.995Z</time></trkpt><trkpt lat="8.958799" lon="-79.549549"><ele>160.332</ele><time>2025-06-18T15:58:36.995Z</time></trkpt><trkpt lat="8.958744" lon="-79.549566"><ele>160.849</ele><time>2025-06-18T15:58:42.995Z</time></trkpt><trkpt lat="8.958690" lon="-79.549563"><ele>161.296</ele><time>2025-06-18T15:58:47.995Z</time></trkpt><trkpt lat="8.958654" lon="-79.549596"><ele>161.989</ele><time>2025-06-18T15:58:54.995Z</time></trkpt><trkpt lat="8.958607" lon="-79.549617"><ele>162.559</ele><time>2025-06-18T15:59:01.995Z</time></trkpt><trkpt lat="8.958558" lon="-79.549630"><ele>162.915</ele><time>2025-06-18T15:59:04.995Z</time></trkpt><trkpt lat="8.958516" lon="-79.549668"><ele>163.284</ele><time>2025-06-18T15:59:08.995Z</time></trkpt><trkpt lat="8.958467" lon="-79.549709"><ele>163.611</ele><time>2025-06-18T15:59:11.995Z</time></trkpt><trkpt lat="8.958427" lon="-79.549732"><ele>163.999</ele><time>2025-06-18T15:59:14.995Z</time></trkpt><trkpt lat="8.958382" lon="-79.549757"><ele>164.307</ele><time>2025-06-18T15:59:17.995Z</time></trkpt><trkpt lat="8.958337" lon="-79.549745"><ele>164.727</ele><time>2025-06-18T15:59:21.995Z</time></trkpt><trkpt lat="8.958294" lon="-79.549727"><ele>165.109</ele><time>2025-06-18T15:59:26.995Z</time></trkpt><trkpt lat="8.958248" lon="-79.549711"><ele>165.421</ele><time>2025-06-18T15:59:34.995Z</time></trkpt><trkpt lat="8.958203" lon="-79.549717"><ele>165.760</ele><time>2025-06-18T15:59:38.995Z</time></trkpt><trkpt lat="8.958164" lon="-79.549682"><ele>166.337</ele><time>2025-06-18T15:59:43.995Z</time></trkpt><trkpt lat="8.958102" lon="-79.549672"><ele>166.994</ele><time>2025-06-18T15:59:47.995Z</time></trkpt><trkpt lat="8.958041" lon="-79.549685"><ele>167.287</ele><time>2025-06-18T15:59:49.995Z</time></trkpt><trkpt lat="8.957992" lon="-79.549701"><ele>167.787</ele><time>2025-06-18T15:59:51.995Z</time></trkpt><trkpt lat="8.957960" lon="-79.549741"><ele>167.893</ele><time>2025-06-18T15:59:54.995Z</time></trkpt><trkpt lat="8.957942" lon="-79.549785"><ele>168.022</ele><time>2025-06-18T15:59:58.995Z</time></trkpt><trkpt lat="8.957894" lon="-79.549765"><ele>168.179</ele><time>2025-06-18T16:00:06.995Z</time></trkpt><trkpt lat="8.957848" lon="-79.549750"><ele>168.364</ele><time>2025-06-18T16:00:12.995Z</time></trkpt><trkpt lat="8.957794" lon="-79.549743"><ele>168.806</ele><time>2025-06-18T16:00:18.995Z</time></trkpt><trkpt lat="8.957746" lon="-79.549743"><ele>169.516</ele><time>2025-06-18T16:00:24.995Z</time></trkpt><trkpt lat="8.957691" lon="-79.549734"><ele>170.009</ele><time>2025-06-18T16:00:30.995Z</time></trkpt><trkpt lat="8.957636" lon="-79.549726"><ele>170.468</ele><time>2025-06-18T16:00:35.995Z</time></trkpt><trkpt lat="8.957589" lon="-79.549727"><ele>171.157</ele><time>2025-06-18T16:00:39.995Z</time></trkpt><trkpt lat="8.957532" lon="-79.549732"><ele>171.894</ele><time>2025-06-18T16:00:43.995Z</time></trkpt><trkpt lat="8.957494" lon="-79.549696"><ele>172.341</ele><time>2025-06-18T16:00:48.995Z</time></trkpt><trkpt lat="8.957507" lon="-79.549652"><ele>172.734</ele><time>2025-06-18T16:00:52.995Z</time></trkpt><trkpt lat="8.957523" lon="-79.549607"><ele>173.134</ele><time>2025-06-18T16:00:57.995Z</time></trkpt><trkpt lat="8.957567" lon="-79.549551"><ele>173.690</ele><time>2025-06-18T16:01:03.995Z</time></trkpt><trkpt lat="8.957598" lon="-79.549504"><ele>174.349</ele><time>2025-06-18T16:01:07.995Z</time></trkpt><trkpt lat="8.957649" lon="-79.549502"><ele>175.116</ele><time>2025-06-18T16:01:19.995Z</time></trkpt><trkpt lat="8.957697" lon="-79.549517"><ele>175.899</ele><time>2025-06-18T16:01:24.995Z</time></trkpt><trkpt lat="8.957741" lon="-79.549503"><ele>176.307</ele><time>2025-06-18T16:01:32.995Z</time></trkpt><trkpt lat="8.957783" lon="-79.549540"><ele>176.527</ele><time>2025-06-18T16:01:41.995Z</time></trkpt><trkpt lat="8.957798" lon="-79.549493"><ele>176.709</ele><time>2025-06-18T16:02:04.995Z</time></trkpt><trkpt lat="8.957796" lon="-79.549541"><ele>176.791</ele><time>2025-06-18T16:02:56.999Z</time></trkpt><trkpt lat="8.957856" lon="-79.549521"><ele>176.710</ele><time>2025-06-18T16:03:55.996Z</time></trkpt><trkpt lat="8.957800" lon="-79.549530"><ele>177.447</ele><time>2025-06-18T16:04:12.996Z</time></trkpt><trkpt lat="8.957750" lon="-79.549521"><ele>177.394</ele><time>2025-06-18T16:04:17.996Z</time></trkpt></trkseg></trk></gpx>